[{"OBJECT_NAME":"LUSAT (LO-19)","OBJECT_ID":"1990-005G","EPOCH":"2026-03-09T14:54:14.260896","MEAN_MOTION":14.34087969,"ECCENTRICITY":0.001234,"INCLINATION":98.8938,"RA_OF_ASC_NODE":87.6461,"ARG_OF_PERICENTER":134.6824,"MEAN_ANOMALY":225.5367,"EPHEMERIS_TYPE":0,"CLASSIFICATION_TYPE":"U","NORAD_CAT_ID":20442,"ELEMENT_SET_NO":999,"REV_AT_EPOCH":88812,"BSTAR":8.4338e-5,"MEAN_MOTION_DOT":1.89e-6,"MEAN_MOTION_DDOT":0},{"OBJECT_NAME":"CZ-6A DEB","OBJECT_ID":"2024-140AEW","EPOCH":"2026-03-09T15:15:45.138240","MEAN_MOTION":14.34306829,"ECCENTRICITY":0.001669,"INCLINATION":89.023,"RA_OF_ASC_NODE":286.484,"ARG_OF_PERICENTER":100.1064,"MEAN_ANOMALY":260.2018,"EPHEMERIS_TYPE":0,"CLASSIFICATION_TYPE":"U","NORAD_CAT_ID":64656,"ELEMENT_SET_NO":999,"REV_AT_EPOCH":7167,"BSTAR":0.0017302,"MEAN_MOTION_DOT":4.88e-5,"MEAN_MOTION_DDOT":0}]
